[{"OBJECT_NAME":"ONEWEB-0056","OBJECT_ID":"2020-008AE","EPOCH":"2026-05-15T07:10:49.755072","MEAN_MOTION":13.10841334,"ECCENTRICITY":0.0001654,"INCLINATION":87.8858,"RA_OF_ASC_NODE":42.8057,"ARG_OF_PERICENTER":84.2863,"MEAN_ANOMALY":275.8453,"EPHEMERIS_TYPE":0,"CLASSIFICATION_TYPE":"U","NORAD_CAT_ID":45159,"ELEMENT_SET_NO":999,"REV_AT_EPOCH":30387,"BSTAR":-0.0013000000000000002,"MEAN_MOTION_DOT":-4.44e-06,"MEAN_MOTION_DDOT":0.0},{"OBJECT_NAME":"ONEWEB-0057","OBJECT_ID":"2020-008AF","EPOCH":"2026-05-15T05:42:00.618624","MEAN_MOTION":13.10375005,"ECCENTRICITY":0.0002318,"INCLINATION":87.8861,"RA_OF_ASC_NODE":42.8299,"ARG_OF_PERICENTER":86.3179,"MEAN_ANOMALY":273.8213,"EPHEMERIS_TYPE":0,"CLASSIFICATION_TYPE":"U","NORAD_CAT_ID":45160,"ELEMENT_SET_NO":999,"REV_AT_EPOCH":30403,"BSTAR":-0.0015834999999999998,"MEAN_MOTION_DOT":-5.4e-06,"MEAN_MOTION_DDOT":0.0},{"OBJECT_NAME":"ONEWEB-0058","OBJECT_ID":"2020-008AG","EPOCH":"2026-05-15T07:12:50.175072","MEAN_MOTION":13.10370959,"ECCENTRICITY":0.0001837,"INCLINATION":87.8855,"RA_OF_ASC_NODE":42.8249,"ARG_OF_PERICENTER":71.7442,"MEAN_ANOMALY":288.3885,"EPHEMERIS_TYPE":0,"CLASSIFICATION_TYPE":"U","NORAD_CAT_ID":45161,"ELEMENT_SET_NO":999,"REV_AT_EPOCH":30411,"BSTAR":-0.00156,"MEAN_MOTION_DOT":-5.32e-06,"MEAN_MOTION_DDOT":0.0},{"OBJECT_NAME":"ONEWEB-0059","OBJECT_ID":"2020-008AH","EPOCH":"2026-05-15T07:07:52.089024","MEAN_MOTION":13.10371459,"ECCENTRICITY":0.0002028,"INCLINATION":87.8851,"RA_OF_ASC_NODE":42.8247,"ARG_OF_PERICENTER":74.8748,"MEAN_ANOMALY":285.2604,"EPHEMERIS_TYPE":0,"CLASSIFICATION_TYPE":"U","NORAD_CAT_ID":45162,"ELEMENT_SET_NO":999,"REV_AT_EPOCH":30401,"BSTAR":-0.0011549,"MEAN_MOTION_DOT":-3.9e-06,"MEAN_MOTION_DDOT":0.0},{"OBJECT_NAME":"ONEWEB-0062","OBJECT_ID":"2020-008AJ","EPOCH":"2026-05-15T05:51:10.009440","MEAN_MOTION":13.10375434,"ECCENTRICITY":0.0001645,"INCLINATION":87.8867,"RA_OF_ASC_NODE":42.8202,"ARG_OF_PERICENTER":66.3585,"MEAN_ANOMALY":293.7715,"EPHEMERIS_TYPE":0,"CLASSIFICATION_TYPE":"U","NORAD_CAT_ID":45163,"ELEMENT_SET_NO":999,"REV_AT_EPOCH":30387,"BSTAR":-0.0008417400000000001,"MEAN_MOTION_DOT":-2.81e-06,"MEAN_MOTION_DDOT":0.0},{"OBJECT_NAME":"ONEWEB-0065","OBJECT_ID":"2020-008AK","EPOCH":"2026-05-15T06:39:00.334944","MEAN_MOTION":13.10370559,"ECCENTRICITY":0.000208,"INCLINATION":87.8857,"RA_OF_ASC_NODE":42.8222,"ARG_OF_PERICENTER":88.6211,"MEAN_ANOMALY":271.5154,"EPHEMERIS_TYPE":0,"CLASSIFICATION_TYPE":"U","NORAD_CAT_ID":45164,"ELEMENT_SET_NO":999,"REV_AT_EPOCH":30357,"BSTAR":0.0017083,"MEAN_MOTION_DOT":6.09e-06,"MEAN_MOTION_DDOT":0.0},{"OBJECT_NAME":"ONEWEB-0066","OBJECT_ID":"2020-020A","EPOCH":"2026-05-15T06:18:23.836896","MEAN_MOTION":13.11415132,"ECCENTRICITY":0.0001988,"INCLINATION":87.8926,"RA_OF_ASC_NODE":27.6188,"ARG_OF_PERICENTER":76.2744,"MEAN_ANOMALY":283.8605,"EPHEMERIS_TYPE":0,"CLASSIFICATION_TYPE":"U","NORAD_CAT_ID":45424,"ELEMENT_SET_NO":999,"REV_AT_EPOCH":29836,"BSTAR":-0.0012989999999999998,"MEAN_MOTION_DOT":-4.48e-06,"MEAN_MOTION_DDOT":0.0},{"OBJECT_NAME":"ONEWEB-0067","OBJECT_ID":"2020-020B","EPOCH":"2026-05-15T05:23:20.083200","MEAN_MOTION":13.11423468,"ECCENTRICITY":0.0001915,"INCLINATION":87.8938,"RA_OF_ASC_NODE":27.5433,"ARG_OF_PERICENTER":87.4444,"MEAN_ANOMALY":272.6904,"EPHEMERIS_TYPE":0,"CLASSIFICATION_TYPE":"U","NORAD_CAT_ID":45425,"ELEMENT_SET_NO":999,"REV_AT_EPOCH":29841,"BSTAR":0.0014613999999999999,"MEAN_MOTION_DOT":5.31e-06,"MEAN_MOTION_DDOT":0.0},{"OBJECT_NAME":"ONEWEB-0080","OBJECT_ID":"2020-020C","EPOCH":"2026-05-15T05:22:28.041888","MEAN_MOTION":13.11418641,"ECCENTRICITY":0.0001615,"INCLINATION":87.8928,"RA_OF_ASC_NODE":27.6208,"ARG_OF_PERICENTER":73.2066,"MEAN_ANOMALY":286.9239,"EPHEMERIS_TYPE":0,"CLASSIFICATION_TYPE":"U","NORAD_CAT_ID":45426,"ELEMENT_SET_NO":999,"REV_AT_EPOCH":29838,"BSTAR":0.0015425,"MEAN_MOTION_DOT":5.59e-06,"MEAN_MOTION_DDOT":0.0},{"OBJECT_NAME":"ONEWEB-0090","OBJECT_ID":"2020-020D","EPOCH":"2026-05-15T06:03:56.983968","MEAN_MOTION":13.11414426,"ECCENTRICITY":0.000176,"INCLINATION":87.8925,"RA_OF_ASC_NODE":27.6201,"ARG_OF_PERICENTER":79.2962,"MEAN_ANOMALY":280.8364,"EPHEMERIS_TYPE":0,"CLASSIFICATION_TYPE":"U","NORAD_CAT_ID":45427,"ELEMENT_SET_NO":999,"REV_AT_EPOCH":29835,"BSTAR":-0.00077966,"MEAN_MOTION_DOT":-2.64e-06,"MEAN_MOTION_DDOT":0.0},{"OBJECT_NAME":"ONEWEB-0061","OBJECT_ID":"2020-020E","EPOCH":"2026-05-15T05:00:04.222080","MEAN_MOTION":13.11420602,"ECCENTRICITY":0.0001804,"INCLINATION":87.8926,"RA_OF_ASC_NODE":27.6142,"ARG_OF_PERICENTER":78.6445,"MEAN_ANOMALY":281.4885,"EPHEMERIS_TYPE":0,"CLASSIFICATION_TYPE":"U","NORAD_CAT_ID":45428,"ELEMENT_SET_NO":999,"REV_AT_EPOCH":29830,"BSTAR":-7.4473e-05,"MEAN_MOTION_DOT":-1.4e-07,"MEAN_MOTION_DDOT":0.0},{"OBJECT_NAME":"ONEWEB-0081","OBJECT_ID":"2020-020F","EPOCH":"2026-05-15T06:23:17.023200","MEAN_MOTION":13.11416387,"ECCENTRICITY":0.0002033,"INCLINATION":87.8922,"RA_OF_ASC_NODE":27.6143,"ARG_OF_PERICENTER":80.1757,"MEAN_ANOMALY":279.96,"EPHEMERIS_TYPE":0,"CLASSIFICATION_TYPE":"U","NORAD_CAT_ID":45429,"ELEMENT_SET_NO":999,"REV_AT_EPOCH":29842,"BSTAR":-0.0015856000000000002,"MEAN_MOTION_DOT":-5.49e-06,"MEAN_MOTION_DDOT":0.0},{"OBJECT_NAME":"ONEWEB-0069","OBJECT_ID":"2020-020G","EPOCH":"2026-05-15T06:19:21.330912","MEAN_MOTION":13.1085899,"ECCENTRICITY":0.0001911,"INCLINATION":87.8919,"RA_OF_ASC_NODE":27.6154,"ARG_OF_PERICENTER":80.6325,"MEAN_ANOMALY":279.5019,"EPHEMERIS_TYPE":0,"CLASSIFICATION_TYPE":"U","NORAD_CAT_ID":45430,"ELEMENT_SET_NO":999,"REV_AT_EPOCH":29835,"BSTAR":-0.0014062,"MEAN_MOTION_DOT":-4.82e-06,"MEAN_MOTION_DDOT":0.0},{"OBJECT_NAME":"ONEWEB-0031","OBJECT_ID":"2020-020H","EPOCH":"2026-05-15T05:27:08.586144","MEAN_MOTION":13.11416176,"ECCENTRICITY":0.000169,"INCLINATION":87.8914,"RA_OF_ASC_NODE":27.6321,"ARG_OF_PERICENTER":76.4601,"MEAN_ANOMALY":283.6715,"EPHEMERIS_TYPE":0,"CLASSIFICATION_TYPE":"U","NORAD_CAT_ID":45431,"ELEMENT_SET_NO":999,"REV_AT_EPOCH":29833,"BSTAR":0.0016973,"MEAN_MOTION_DOT":6.14e-06,"MEAN_MOTION_DDOT":0.0},{"OBJECT_NAME":"ONEWEB-0027","OBJECT_ID":"2020-020J","EPOCH":"2026-05-15T04:44:40.654464","MEAN_MOTION":13.17651258,"ECCENTRICITY":0.0001456,"INCLINATION":87.9174,"RA_OF_ASC_NODE":12.4067,"ARG_OF_PERICENTER":86.3283,"MEAN_ANOMALY":273.8016,"EPHEMERIS_TYPE":0,"CLASSIFICATION_TYPE":"U","NORAD_CAT_ID":45432,"ELEMENT_SET_NO":999,"REV_AT_EPOCH":30201,"BSTAR":8.7073e-05,"MEAN_MOTION_DOT":4.7e-07,"MEAN_MOTION_DDOT":0.0},{"OBJECT_NAME":"ONEWEB-0064","OBJECT_ID":"2020-020K","EPOCH":"2026-05-15T05:24:42.572736","MEAN_MOTION":13.11416547,"ECCENTRICITY":0.0001644,"INCLINATION":87.8915,"RA_OF_ASC_NODE":27.623,"ARG_OF_PERICENTER":79.668,"MEAN_ANOMALY":280.4633,"EPHEMERIS_TYPE":0,"CLASSIFICATION_TYPE":"U","NORAD_CAT_ID":45433,"ELEMENT_SET_NO":999,"REV_AT_EPOCH":29836,"BSTAR":0.0018167,"MEAN_MOTION_DOT":6.57e-06,"MEAN_MOTION_DDOT":0.0}]