ONEWEB-0056             
1 45159U 20008AE  26135.29918698 -.00000444  00000+0 -13000-2 0  9992
2 45159  87.8858  42.8057 0001654  84.2863 275.8453 13.10841334303876
ONEWEB-0057             
1 45160U 20008AF  26135.23750716 -.00000540  00000+0 -15835-2 0  9998
2 45160  87.8861  42.8299 0002318  86.3179 273.8213 13.10375005304039
ONEWEB-0058             
1 45161U 20008AG  26135.30058073 -.00000532  00000+0 -15600-2 0  9995
2 45161  87.8855  42.8249 0001837  71.7442 288.3885 13.10370959304112
ONEWEB-0059             
1 45162U 20008AH  26135.29713066 -.00000390  00000+0 -11549-2 0  9994
2 45162  87.8851  42.8247 0002028  74.8748 285.2604 13.10371459304013
ONEWEB-0062             
1 45163U 20008AJ  26135.24386585 -.00000281  00000+0 -84174-3 0  9996
2 45163  87.8867  42.8202 0001645  66.3585 293.7715 13.10375434303878
ONEWEB-0065             
1 45164U 20008AK  26135.27708721  .00000609  00000+0  17083-2 0  9996
2 45164  87.8857  42.8222 0002080  88.6211 271.5154 13.10370559303578
ONEWEB-0066             
1 45424U 20020A   26135.26277589 -.00000448  00000+0 -12990-2 0  9996
2 45424  87.8926  27.6188 0001988  76.2744 283.8605 13.11415132298361
ONEWEB-0067             
1 45425U 20020B   26135.22453800  .00000531  00000+0  14614-2 0  9991
2 45425  87.8938  27.5433 0001915  87.4444 272.6904 13.11423468298413
ONEWEB-0080             
1 45426U 20020C   26135.22393567  .00000559  00000+0  15425-2 0  9996
2 45426  87.8928  27.6208 0001615  73.2066 286.9239 13.11418641298386
ONEWEB-0090             
1 45427U 20020D   26135.25274287 -.00000264  00000+0 -77966-3 0  9991
2 45427  87.8925  27.6201 0001760  79.2962 280.8364 13.11414426298355
ONEWEB-0061             
1 45428U 20020E   26135.20838220 -.00000014  00000+0 -74473-4 0  9994
2 45428  87.8926  27.6142 0001804  78.6445 281.4885 13.11420602298302
ONEWEB-0081             
1 45429U 20020F   26135.26616925 -.00000549  00000+0 -15856-2 0  9998
2 45429  87.8922  27.6143 0002033  80.1757 279.9600 13.11416387298424
ONEWEB-0069             
1 45430U 20020G   26135.26344133 -.00000482  00000+0 -14062-2 0  9993
2 45430  87.8919  27.6154 0001911  80.6325 279.5019 13.10858990298355
ONEWEB-0031             
1 45431U 20020H   26135.22718271  .00000614  00000+0  16973-2 0  9996
2 45431  87.8914  27.6321 0001690  76.4601 283.6715 13.11416176298335
ONEWEB-0027             
1 45432U 20020J   26135.19769276  .00000047  00000+0  87073-4 0  9995
2 45432  87.9174  12.4067 0001456  86.3283 273.8016 13.17651258302014
ONEWEB-0064             
1 45433U 20020K   26135.22549274  .00000657  00000+0  18167-2 0  9997
2 45433  87.8915  27.6230 0001644  79.6680 280.4633 13.11416547298367
